SAUDISAT 1C             
1 27607U 02058C   23129.30747605  .00001442  00000+0  21459-3 0  9990
2 27607  64.5561  24.1174 0072406 232.4447 127.0065 14.77196831 96480
SAUDISAT 2              
1 28371U 04025F   23129.46023351  .00000472  00000+0  12052-3 0  9998
2 28371  98.4274  92.7746 0025157 179.8413 180.2780 14.54900906   694
SAUDISAT 3              
1 31118U 07012B   23129.40718738  .00000560  00000+0  10220-3 0  9997
2 31118  98.0112  74.3696 0013817 235.2959 124.6946 14.69658833860972
PISAT                   
1 41784U 16059B   23129.59607592  .00001371  00000+0  26504-3 0  9996
2 41784  97.8730 164.5917 0030539 215.0563 144.8631 14.64613098353410
FLYING LAPTOP           
1 42831U 17042G   23129.55275717  .00001629  00000+0  16164-3 0  9996
2 42831  97.3928 329.6288 0013603   2.3659 357.7648 14.92964103316722
SALSAT                  
1 46495U 20068K   23129.42496144  .00005187  00000+0  34635-3 0  9999
2 46495  97.7677  77.0355 0013879 249.5669 110.4068 15.07390137143238
